{"fetched_at":"2026-07-19T07:04:52.450Z","source":"https://celestrak.org/NORAD/elements/gp.php?GROUP=qianfan&FORMAT=JSON","constellation":"qianfan","records":[{"OBJECT_NAME":"QIANFAN-225","OBJECT_ID":"2026-155G","EPOCH":"2026-07-18T21:07:37.658208","CLASSIFICATION_TYPE":"U","MEAN_MOTION":14.22451136,"ECCENTRICITY":0.0029324,"INCLINATION":89.0064,"RA_OF_ASC_NODE":60.5288,"ARG_OF_PERICENTER":211.4537,"MEAN_ANOMALY":148.4902,"EPHEMERIS_TYPE":0,"NORAD_CAT_ID":69854,"ELEMENT_SET_NO":999,"REV_AT_EPOCH":190,"BSTAR":0.00006509,"MEAN_MOTION_DOT":0.0000016,"MEAN_MOTION_DDOT":0},{"OBJECT_NAME":"QIANFAN-226","OBJECT_ID":"2026-155H","EPOCH":"2026-07-18T21:05:34.165824","CLASSIFICATION_TYPE":"U","MEAN_MOTION":14.22559169,"ECCENTRICITY":0.0030351,"INCLINATION":89.0063,"RA_OF_ASC_NODE":60.5287,"ARG_OF_PERICENTER":211.0758,"MEAN_ANOMALY":148.8639,"EPHEMERIS_TYPE":0,"NORAD_CAT_ID":69855,"ELEMENT_SET_NO":999,"REV_AT_EPOCH":190,"BSTAR":0.000067707,"MEAN_MOTION_DOT":0.00000166,"MEAN_MOTION_DDOT":0},{"OBJECT_NAME":"QIANFAN-227","OBJECT_ID":"2026-155J","EPOCH":"2026-07-17T23:01:29.627616","CLASSIFICATION_TYPE":"U","MEAN_MOTION":14.20399872,"ECCENTRICITY":0.0030842,"INCLINATION":89.0062,"RA_OF_ASC_NODE":60.6317,"ARG_OF_PERICENTER":215.061,"MEAN_ANOMALY":144.855,"EPHEMERIS_TYPE":0,"NORAD_CAT_ID":69856,"ELEMENT_SET_NO":999,"REV_AT_EPOCH":177,"BSTAR":-1.0086,"MEAN_MOTION_DOT":-0.02008388,"MEAN_MOTION_DDOT":0},{"OBJECT_NAME":"QIANFAN-228","OBJECT_ID":"2026-155K","EPOCH":"2026-07-17T23:00:18.463392","CLASSIFICATION_TYPE":"U","MEAN_MOTION":14.20295178,"ECCENTRICITY":0.0031878,"INCLINATION":89.0055,"RA_OF_ASC_NODE":60.6322,"ARG_OF_PERICENTER":218.7208,"MEAN_ANOMALY":141.1698,"EPHEMERIS_TYPE":0,"NORAD_CAT_ID":69857,"ELEMENT_SET_NO":999,"REV_AT_EPOCH":177,"BSTAR":-0.95328,"MEAN_MOTION_DOT":-0.01902873,"MEAN_MOTION_DDOT":0},{"OBJECT_NAME":"QIANFAN-229","OBJECT_ID":"2026-155L","EPOCH":"2026-07-18T19:11:57.302592","CLASSIFICATION_TYPE":"U","MEAN_MOTION":14.26690192,"ECCENTRICITY":0.003081,"INCLINATION":89.0064,"RA_OF_ASC_NODE":60.5355,"ARG_OF_PERICENTER":210.8316,"MEAN_ANOMALY":149.1069,"EPHEMERIS_TYPE":0,"NORAD_CAT_ID":69858,"ELEMENT_SET_NO":999,"REV_AT_EPOCH":189,"BSTAR":0.000059982,"MEAN_MOTION_DOT":0.0000016,"MEAN_MOTION_DDOT":0},{"OBJECT_NAME":"QIANFAN-230","OBJECT_ID":"2026-155M","EPOCH":"2026-07-17T21:41:32.151840","CLASSIFICATION_TYPE":"U","MEAN_MOTION":14.16167691,"ECCENTRICITY":0.00329611,"INCLINATION":89.0054,"RA_OF_ASC_NODE":60.6411,"ARG_OF_PERICENTER":222.0372,"MEAN_ANOMALY":137.8286,"EPHEMERIS_TYPE":0,"NORAD_CAT_ID":69859,"ELEMENT_SET_NO":999,"REV_AT_EPOCH":176,"BSTAR":-1.0463152,"MEAN_MOTION_DOT":-0.01931944,"MEAN_MOTION_DDOT":0},{"OBJECT_NAME":"QIANFAN-231","OBJECT_ID":"2026-155N","EPOCH":"2026-07-18T20:58:35.107680","CLASSIFICATION_TYPE":"U","MEAN_MOTION":14.26097102,"ECCENTRICITY":0.0030888,"INCLINATION":89.0065,"RA_OF_ASC_NODE":60.5282,"ARG_OF_PERICENTER":209.9561,"MEAN_ANOMALY":149.9866,"EPHEMERIS_TYPE":0,"NORAD_CAT_ID":69860,"ELEMENT_SET_NO":999,"REV_AT_EPOCH":190,"BSTAR":0.000071816,"MEAN_MOTION_DOT":0.00000187,"MEAN_MOTION_DDOT":0},{"OBJECT_NAME":"QIANFAN-232","OBJECT_ID":"2026-155P","EPOCH":"2026-07-18T00:40:47.018208","CLASSIFICATION_TYPE":"U","MEAN_MOTION":14.26736537,"ECCENTRICITY":0.00305938,"INCLINATION":89.0063,"RA_OF_ASC_NODE":60.6233,"ARG_OF_PERICENTER":214.1355,"MEAN_ANOMALY":145.7872,"EPHEMERIS_TYPE":0,"NORAD_CAT_ID":69861,"ELEMENT_SET_NO":999,"REV_AT_EPOCH":178,"BSTAR":0.00007652291,"MEAN_MOTION_DOT":0.000002,"MEAN_MOTION_DDOT":0},{"OBJECT_NAME":"QIANFAN-233","OBJECT_ID":"2026-155Q","EPOCH":"2026-07-18T20:52:31.525248","CLASSIFICATION_TYPE":"U","MEAN_MOTION":14.26752635,"ECCENTRICITY":0.0030638,"INCLINATION":89.0064,"RA_OF_ASC_NODE":60.5274,"ARG_OF_PERICENTER":211.0527,"MEAN_ANOMALY":148.8857,"EPHEMERIS_TYPE":0,"NORAD_CAT_ID":69862,"ELEMENT_SET_NO":999,"REV_AT_EPOCH":190,"BSTAR":0.000064992,"MEAN_MOTION_DOT":0.00000173,"MEAN_MOTION_DDOT":0},{"OBJECT_NAME":"QIANFAN-234","OBJECT_ID":"2026-155R","EPOCH":"2026-07-18T19:11:26.687616","CLASSIFICATION_TYPE":"U","MEAN_MOTION":14.26759229,"ECCENTRICITY":0.0030604,"INCLINATION":89.0064,"RA_OF_ASC_NODE":60.5355,"ARG_OF_PERICENTER":211.3285,"MEAN_ANOMALY":148.6086,"EPHEMERIS_TYPE":0,"NORAD_CAT_ID":69863,"ELEMENT_SET_NO":999,"REV_AT_EPOCH":189,"BSTAR":0.00006718,"MEAN_MOTION_DOT":0.00000178,"MEAN_MOTION_DDOT":0},{"OBJECT_NAME":"QIANFAN-235","OBJECT_ID":"2026-155S","EPOCH":"2026-07-18T20:52:21.541728","CLASSIFICATION_TYPE":"U","MEAN_MOTION":14.26765132,"ECCENTRICITY":0.0030564,"INCLINATION":89.0064,"RA_OF_ASC_NODE":60.5274,"ARG_OF_PERICENTER":211.1148,"MEAN_ANOMALY":148.8237,"EPHEMERIS_TYPE":0,"NORAD_CAT_ID":69864,"ELEMENT_SET_NO":999,"REV_AT_EPOCH":190,"BSTAR":0.000059892,"MEAN_MOTION_DOT":0.0000016,"MEAN_MOTION_DDOT":0},{"OBJECT_NAME":"QIANFAN-236","OBJECT_ID":"2026-155T","EPOCH":"2026-07-18T19:11:17.924064","CLASSIFICATION_TYPE":"U","MEAN_MOTION":14.26770363,"ECCENTRICITY":0.0030529,"INCLINATION":89.0064,"RA_OF_ASC_NODE":60.5354,"ARG_OF_PERICENTER":211.3762,"MEAN_ANOMALY":148.5612,"EPHEMERIS_TYPE":0,"NORAD_CAT_ID":69865,"ELEMENT_SET_NO":999,"REV_AT_EPOCH":189,"BSTAR":0.000069381,"MEAN_MOTION_DOT":0.00000183,"MEAN_MOTION_DDOT":0},{"OBJECT_NAME":"QIANFAN-237","OBJECT_ID":"2026-155U","EPOCH":"2026-07-18T20:52:10.696800","CLASSIFICATION_TYPE":"U","MEAN_MOTION":14.26778591,"ECCENTRICITY":0.0030513,"INCLINATION":89.0064,"RA_OF_ASC_NODE":60.5274,"ARG_OF_PERICENTER":211.1674,"MEAN_ANOMALY":148.7711,"EPHEMERIS_TYPE":0,"NORAD_CAT_ID":69866,"ELEMENT_SET_NO":999,"REV_AT_EPOCH":189,"BSTAR":0.000065214,"MEAN_MOTION_DOT":0.00000173,"MEAN_MOTION_DDOT":0},{"OBJECT_NAME":"QIANFAN-238","OBJECT_ID":"2026-155V","EPOCH":"2026-07-18T19:11:05.313984","CLASSIFICATION_TYPE":"U","MEAN_MOTION":14.26786012,"ECCENTRICITY":0.0030485,"INCLINATION":89.0064,"RA_OF_ASC_NODE":60.5354,"ARG_OF_PERICENTER":211.4462,"MEAN_ANOMALY":148.491,"EPHEMERIS_TYPE":0,"NORAD_CAT_ID":69867,"ELEMENT_SET_NO":999,"REV_AT_EPOCH":189,"BSTAR":0.000063035,"MEAN_MOTION_DOT":0.00000168,"MEAN_MOTION_DDOT":0}]}
