QIANFAN-225             
1 69854U 26155G   26199.88029697  .00000160  00000+0  65090-4 0  9997
2 69854  89.0064  60.5288 0029324 211.4537 148.4902 14.22451136  1900
QIANFAN-226             
1 69855U 26155H   26199.87886766  .00000166  00000+0  67707-4 0  9998
2 69855  89.0063  60.5287 0030351 211.0758 148.8639 14.22559169  1908
QIANFAN-227             
1 69856U 26155J   26198.95937069 -.02008388  00000+0 -10086+1 0  9992
2 69856  89.0062  60.6317 0030842 215.0610 144.8550 14.20399872  1773
QIANFAN-228             
1 69857U 26155K   26198.95854703 -.01902873  00000+0 -95328+0 0  9998
2 69857  89.0055  60.6322 0031878 218.7208 141.1698 14.20295178  1772
QIANFAN-229             
1 69858U 26155L   26199.79996878  .00000160  00000+0  59982-4 0  9998
2 69858  89.0064  60.5355 0030810 210.8316 149.1069 14.26690192  1890
QIANFAN-230             
1 69859U 26155M   26198.90384435 -.01931944  00000+0 -10463+1 0  9994
2 69859  89.0054  60.6411 0032961 222.0372 137.8286 14.16167691  1763
QIANFAN-231             
1 69860U 26155N   26199.87401745  .00000187  00000+0  71816-4 0  9993
2 69860  89.0065  60.5282 0030888 209.9561 149.9866 14.26097102  1906
QIANFAN-232             
1 69861U 26155P   26199.02832197  .00000200  00000+0  76523-4 0  9996
2 69861  89.0063  60.6233 0030593 214.1355 145.7872 14.26736537  1783
QIANFAN-233             
1 69862U 26155Q   26199.86980932  .00000173  00000+0  64992-4 0  9996
2 69862  89.0064  60.5274 0030638 211.0527 148.8857 14.26752635  1904
QIANFAN-234             
1 69863U 26155R   26199.79961444  .00000178  00000+0  67180-4 0  9993
2 69863  89.0064  60.5355 0030604 211.3285 148.6086 14.26759229  1898
QIANFAN-235             
1 69864U 26155S   26199.86969377  .00000160  00000+0  59892-4 0  9997
2 69864  89.0064  60.5274 0030564 211.1148 148.8237 14.26765132  1902
QIANFAN-236             
1 69865U 26155T   26199.79951301  .00000183  00000+0  69381-4 0  9997
2 69865  89.0064  60.5354 0030529 211.3762 148.5612 14.26770363  1891
QIANFAN-237             
1 69866U 26155U   26199.86956825  .00000173  00000+0  65214-4 0  9992
2 69866  89.0064  60.5274 0030513 211.1674 148.7711 14.26778591  1899
QIANFAN-238             
1 69867U 26155V   26199.79936706  .00000168  00000+0  63035-4 0  9994
2 69867  89.0064  60.5354 0030485 211.4462 148.4910 14.26786012  1890
